CCSDS_OMM_VERS = 2.0
CREATION_DATE  = 
ORIGINATOR     = 

OBJECT_NAME    = 2027-027C
OBJECT_ID      = 2027-027C
CENTER_NAME    = EARTH
REF_FRAME      = TEME
TIME_SYSTEM    = UTC
MEAN_ELEMENT_THEORY = SGP/SGP4

EPOCH          = 2026-02-13T05:43:53.628096
MEAN_MOTION    = 15.17476211
ECCENTRICITY   = .0009882
INCLINATION    = 97.4874
RA_OF_ASC_NODE = 173.5243
ARG_OF_PERICENTER = 292.7831
MEAN_ANOMALY   = 67.2358

EPHEMERIS_TYPE = 0
CLASSIFICATION_TYPE = U
NORAD_CAT_ID   = 67748
ELEMENT_SET_NO = 999
REV_AT_EPOCH   = 15
BSTAR          = .36732E-3
MEAN_MOTION_DOT = .73E-4
MEAN_MOTION_DDOT = 0

CCSDS_OMM_VERS = 2.0
CREATION_DATE  = 
ORIGINATOR     = 

OBJECT_NAME    = 2026-027D
OBJECT_ID      = 2026-027D
CENTER_NAME    = EARTH
REF_FRAME      = TEME
TIME_SYSTEM    = UTC
MEAN_ELEMENT_THEORY = SGP/SGP4

EPOCH          = 2026-02-13T05:43:46.727328
MEAN_MOTION    = 15.17609289
ECCENTRICITY   = .0009775
INCLINATION    = 97.4870
RA_OF_ASC_NODE = 173.5245
ARG_OF_PERICENTER = 296.9692
MEAN_ANOMALY   = 63.0543

EPHEMERIS_TYPE = 0
CLASSIFICATION_TYPE = U
NORAD_CAT_ID   = 67749
ELEMENT_SET_NO = 999
REV_AT_EPOCH   = 15
BSTAR          = .51756E-3
MEAN_MOTION_DOT = .10357E-3
MEAN_MOTION_DDOT = 0

CCSDS_OMM_VERS = 2.0
CREATION_DATE  = 
ORIGINATOR     = 

OBJECT_NAME    = 2026-027E
OBJECT_ID      = 2026-027E
CENTER_NAME    = EARTH
REF_FRAME      = TEME
TIME_SYSTEM    = UTC
MEAN_ELEMENT_THEORY = SGP/SGP4

EPOCH          = 2026-02-13T05:43:45.984288
MEAN_MOTION    = 15.17627979
ECCENTRICITY   = .0008888
INCLINATION    = 97.4880
RA_OF_ASC_NODE = 173.5250
ARG_OF_PERICENTER = 299.1173
MEAN_ANOMALY   = 60.9170

EPHEMERIS_TYPE = 0
CLASSIFICATION_TYPE = U
NORAD_CAT_ID   = 67750
ELEMENT_SET_NO = 999
REV_AT_EPOCH   = 15
BSTAR          = .48662E-3
MEAN_MOTION_DOT = .9736E-4
MEAN_MOTION_DDOT = 0

CCSDS_OMM_VERS = 2.0
CREATION_DATE  = 
ORIGINATOR     = 

OBJECT_NAME    = 2026-027F
OBJECT_ID      = 2026-027F
CENTER_NAME    = EARTH
REF_FRAME      = TEME
TIME_SYSTEM    = UTC
MEAN_ELEMENT_THEORY = SGP/SGP4

EPOCH          = 2026-02-13T05:43:44.182848
MEAN_MOTION    = 15.17660460
ECCENTRICITY   = .0009975
INCLINATION    = 97.4881
RA_OF_ASC_NODE = 173.5248
ARG_OF_PERICENTER = 297.3053
MEAN_ANOMALY   = 62.7164

EPHEMERIS_TYPE = 0
CLASSIFICATION_TYPE = U
NORAD_CAT_ID   = 67751
ELEMENT_SET_NO = 999
REV_AT_EPOCH   = 15
BSTAR          = .82949E-3
MEAN_MOTION_DOT = .1668E-3
MEAN_MOTION_DDOT = 0

CCSDS_OMM_VERS = 2.0
CREATION_DATE  = 
ORIGINATOR     = 

OBJECT_NAME    = 2026-027G
OBJECT_ID      = 2026-027G
CENTER_NAME    = EARTH
REF_FRAME      = TEME
TIME_SYSTEM    = UTC
MEAN_ELEMENT_THEORY = SGP/SGP4

EPOCH          = 2026-02-13T05:43:41.562336
MEAN_MOTION    = 15.17709034
ECCENTRICITY   = .0009207
INCLINATION    = 97.4875
RA_OF_ASC_NODE = 173.5245
ARG_OF_PERICENTER = 300.7447
MEAN_ANOMALY   = 59.2880

EPHEMERIS_TYPE = 0
CLASSIFICATION_TYPE = U
NORAD_CAT_ID   = 67752
ELEMENT_SET_NO = 999
REV_AT_EPOCH   = 15
BSTAR          = .52549E-3
MEAN_MOTION_DOT = .10546E-3
MEAN_MOTION_DDOT = 0

CCSDS_OMM_VERS = 2.0
CREATION_DATE  = 
ORIGINATOR     = 

OBJECT_NAME    = 2026-027H
OBJECT_ID      = 2026-027H
CENTER_NAME    = EARTH
REF_FRAME      = TEME
TIME_SYSTEM    = UTC
MEAN_ELEMENT_THEORY = SGP/SGP4

EPOCH          = 2026-02-12T06:37:35.999904
MEAN_MOTION    = 15.90584976
ECCENTRICITY   = .0003745
INCLINATION    = 97.0063
RA_OF_ASC_NODE = 170.7950
ARG_OF_PERICENTER = 176.5263
MEAN_ANOMALY   = 360.0000

EPHEMERIS_TYPE = 0
CLASSIFICATION_TYPE = U
NORAD_CAT_ID   = 67753
ELEMENT_SET_NO = 999
REV_AT_EPOCH   = 0
BSTAR          = 0
MEAN_MOTION_DOT = -.649E-5
MEAN_MOTION_DDOT = .2052363E-5

CCSDS_OMM_VERS = 2.0
CREATION_DATE  = 
ORIGINATOR     = 

OBJECT_NAME    = 2026-027J
OBJECT_ID      = 2026-027J
CENTER_NAME    = EARTH
REF_FRAME      = TEME
TIME_SYSTEM    = UTC
MEAN_ELEMENT_THEORY = SGP/SGP4

EPOCH          = 2026-02-12T16:48:24.947136
MEAN_MOTION    = 15.55912552
ECCENTRICITY   = .02793864
INCLINATION    = 97.5075
RA_OF_ASC_NODE = 173.0535
ARG_OF_PERICENTER = 337.7593
MEAN_ANOMALY   = 21.1730

EPHEMERIS_TYPE = 0
CLASSIFICATION_TYPE = U
NORAD_CAT_ID   = 67754
ELEMENT_SET_NO = 999
REV_AT_EPOCH   = 1
BSTAR          = .48805826E-3
MEAN_MOTION_DOT = .232317E-2
MEAN_MOTION_DDOT = .2233841E-5

