2027-027C               
1 67748U 27027C   26044.23881514  .00007300  00000+0  36732-3 0  9991
2 67748  97.4874 173.5243 0009882 292.7831  67.2358 15.17476211   159
2026-027D               
1 67749U 26027D   26044.23873527  .00010357  00000+0  51756-3 0  9995
2 67749  97.4870 173.5245 0009775 296.9692  63.0543 15.17609289   153
2026-027E               
1 67750U 26027E   26044.23872667  .00009736  00000+0  48662-3 0  9992
2 67750  97.4880 173.5250 0008888 299.1173  60.9170 15.17627979   153
2026-027F               
1 67751U 26027F   26044.23870582  .00016680  00000+0  82949-3 0  9999
2 67751  97.4881 173.5248 0009975 297.3053  62.7164 15.17660460   152
2026-027G               
1 67752U 26027G   26044.23867549  .00010546  00000+0  52549-3 0  9997
2 67752  97.4875 173.5245 0009207 300.7447  59.2880 15.17709034   154
2026-027H               
1 67753U 26027H   26043.27611111 -.00000649  20524-5  00000+0 0  9997
2 67753  97.0063 170.7950 0003745 176.5263 360.0000 15.90584976    06
2026-027J               
1 67754U 26027J   26043.70028874  .00232317  22338-5  48806-3 0  9997
2 67754  97.5075 173.0535 0279386 337.7593  21.1730 15.55912552    15
